start=new Date('2021-11-29T00:00:00.000Z').valueOf();
sats=[{"GP_ID":"190687063","ELEMENT_SET_NO":"999","REV_AT_EPOCH":"3263","REF_FRAME":"TEME","SITE":"AFETR","MEAN_MOTION_DDOT":"0.0000000000000","ARG_OF_PERICENTER":"54.7206","PERIAPSIS":"545.632","RCS_SIZE":"LARGE","BSTAR":"0.00000287890000","OBJECT_TYPE":"PAYLOAD","NORAD_CAT_ID":"48330","APOAPSIS":"548.882","PERIOD":"95.593","MEAN_ELEMENT_THEORY":"SGP4","CLASSIFICATION_TYPE":"U","OBJECT_ID":"2021-036BG","MEAN_MOTION":"15.06385827","EPOCH":"2021-11-28T21:00:22.219488","OBJECT_NAME":"STARLINK-2501","INCLINATION":"53.0572","TIME_SYSTEM":"UTC","CENTER_NAME":"EARTH","EPHEMERIS_TYPE":"0","TLE_LINE2":"2 48330  53.0572 272.8775 0002346  54.7206 305.4002 15.06385827 32632","SEMIMAJOR_AXIS":"6925.392","COUNTRY_CODE":"US","ECCENTRICITY":"0.00023460","LAUNCH_DATE":"2021-04-29","MEAN_MOTION_DOT":"-0.00000239","RA_OF_ASC_NODE":"272.8775","MEAN_ANOMALY":"305.4002","FILE":"3226391","TLE_LINE1":"1 48330U 21036BG  21332.87525717 -.00000239  00000-0  28789-5 0  9997","DECAY_DATE":null},{"COUNTRY_CODE":"US","ECCENTRICITY":"0.00021720","MEAN_MOTION_DOT":"0.00000885","LAUNCH_DATE":"2021-04-29","MEAN_ANOMALY":"293.1944","RA_OF_ASC_NODE":"272.8875","FILE":"3226391","TLE_LINE1":"1 48331U 21036BH  21332.87156062  .00000885  00000-0  78286-4 0  9993","DECAY_DATE":null,"OBJECT_NAME":"STARLINK-2514","EPOCH":"2021-11-28T20:55:02.837568","TIME_SYSTEM":"UTC","INCLINATION":"53.0543","CENTER_NAME":"EARTH","EPHEMERIS_TYPE":"0","TLE_LINE2":"2 48331  53.0543 272.8875 0002172  66.9273 293.1944 15.06406729 32631","SEMIMAJOR_AXIS":"6925.328","OBJECT_TYPE":"PAYLOAD","NORAD_CAT_ID":"48331","APOAPSIS":"548.697","PERIOD":"95.592","MEAN_ELEMENT_THEORY":"SGP4","CLASSIFICATION_TYPE":"U","MEAN_MOTION":"15.06406729","OBJECT_ID":"2021-036BH","ELEMENT_SET_NO":"999","GP_ID":"190685813","REV_AT_EPOCH":"3263","SITE":"AFETR","ARG_OF_PERICENTER":"66.9273","MEAN_MOTION_DDOT":"0.0000000000000","REF_FRAME":"TEME","PERIAPSIS":"545.689","RCS_SIZE":"LARGE","BSTAR":"0.00007828600000"},{"SEMIMAJOR_AXIS":"6925.349","TLE_LINE2":"2 48332  53.0544 272.9123 0001875  64.9751 295.1432 15.06400010 32639","EPHEMERIS_TYPE":"0","CENTER_NAME":"EARTH","TIME_SYSTEM":"UTC","INCLINATION":"53.0544","OBJECT_NAME":"STARLINK-2511","EPOCH":"2021-11-28T20:53:41.002080","DECAY_DATE":null,"TLE_LINE1":"1 48332U 21036BJ  21332.87061345  .00000082  00000-0  24445-4 0  9990","FILE":"3226391","MEAN_ANOMALY":"295.1432","RA_OF_ASC_NODE":"272.9123","MEAN_MOTION_DOT":"0.00000082","LAUNCH_DATE":"2021-04-29","COUNTRY_CODE":"US","ECCENTRICITY":"0.00018750","BSTAR":"0.00002444500000","RCS_SIZE":"LARGE","PERIAPSIS":"545.915","SITE":"AFETR","MEAN_MOTION_DDOT":"0.0000000000000","ARG_OF_PERICENTER":"64.9751","REF_FRAME":"TEME","REV_AT_EPOCH":"3263","ELEMENT_SET_NO":"999","GP_ID":"190686063","MEAN_MOTION":"15.06400010","OBJECT_ID":"2021-036BJ","CLASSIFICATION_TYPE":"U","PERIOD":"95.592","MEAN_ELEMENT_THEORY":"SGP4","APOAPSIS":"548.512","NORAD_CAT_ID":"48332","OBJECT_TYPE":"PAYLOAD"},{"ELEMENT_SET_NO":"999","GP_ID":"190686315","REV_AT_EPOCH":"3263","SITE":"AFETR","MEAN_MOTION_DDOT":"0.0000000000000","ARG_OF_PERICENTER":"52.2466","REF_FRAME":"TEME","PERIAPSIS":"546.097","RCS_SIZE":"LARGE","BSTAR":"0.00003590000000","OBJECT_TYPE":"PAYLOAD","NORAD_CAT_ID":"48333","APOAPSIS":"548.429","MEAN_ELEMENT_THEORY":"SGP4","PERIOD":"95.593","CLASSIFICATION_TYPE":"U","MEAN_MOTION":"15.06383783","OBJECT_ID":"2021-036BK","OBJECT_NAME":"STARLINK-2518","EPOCH":"2021-11-28T20:44:26.543040","TIME_SYSTEM":"UTC","INCLINATION":"53.0521","CENTER_NAME":"EARTH","EPHEMERIS_TYPE":"0","TLE_LINE2":"2 48333  53.0521 272.9317 0001684  52.2466 307.8675 15.06383783 32638","SEMIMAJOR_AXIS":"6925.398","COUNTRY_CODE":"US","ECCENTRICITY":"0.00016840","LAUNCH_DATE":"2021-04-29","MEAN_MOTION_DOT":"0.00000253","MEAN_ANOMALY":"307.8675","RA_OF_ASC_NODE":"272.9317","FILE":"3226391","TLE_LINE1":"1 48333U 21036BK  21332.86419610  .00000253  00000-0  35900-4 0  9990","DECAY_DATE":null},{"RCS_SIZE":"LARGE","BSTAR":"-0.00005582900000","SITE":"AFETR","MEAN_MOTION_DDOT":"0.0000000000000","ARG_OF_PERICENTER":"68.9645","REF_FRAME":"TEME","PERIAPSIS":"545.921","ELEMENT_SET_NO":"999","GP_ID":"190686564","REV_AT_EPOCH":"3263","CLASSIFICATION_TYPE":"U","MEAN_MOTION":"15.06410703","OBJECT_ID":"2021-036BL","APOAPSIS":"548.440","PERIOD":"95.591","MEAN_ELEMENT_THEORY":"SGP4","NORAD_CAT_ID":"48334","OBJECT_TYPE":"PAYLOAD","TLE_LINE2":"2 48334  53.0538 272.9488 0001819  68.9645 291.1539 15.06410703 32636","SEMIMAJOR_AXIS":"6925.316","CENTER_NAME":"EARTH","EPHEMERIS_TYPE":"0","OBJECT_NAME":"STARLINK-2470","EPOCH":"2021-11-28T20:39:07.485120","TIME_SYSTEM":"UTC","INCLINATION":"53.0538","TLE_LINE1":"1 48334U 21036BL  21332.86050330 -.00001113  00000-0 -55829-4 0  9991","DECAY_DATE":null,"FILE":"3226391","MEAN_ANOMALY":"291.1539","RA_OF_ASC_NODE":"272.9488","COUNTRY_CODE":"US","ECCENTRICITY":"0.00018190","MEAN_MOTION_DOT":"-0.00001113","LAUNCH_DATE":"2021-04-29"},{"BSTAR":"0.00002941600000","RCS_SIZE":"LARGE","PERIAPSIS":"545.645","REF_FRAME":"TEME","SITE":"AFETR","ARG_OF_PERICENTER":"67.1241","MEAN_MOTION_DDOT":"0.0000000000000","REV_AT_EPOCH":"3322","GP_ID":"190663681","ELEMENT_SET_NO":"999","OBJECT_ID":"2021-036BM","MEAN_MOTION":"15.06408649","CLASSIFICATION_TYPE":"U","PERIOD":"95.592","MEAN_ELEMENT_THEORY":"SGP4","APOAPSIS":"548.729","NORAD_CAT_ID":"48335","OBJECT_TYPE":"PAYLOAD","SEMIMAJOR_AXIS":"6925.322","TLE_LINE2":"2 48335  53.0562 272.9656 0002227  67.1241 292.9983 15.06408649 33222","EPHEMERIS_TYPE":"0","CENTER_NAME":"EARTH","INCLINATION":"53.0562","TIME_SYSTEM":"UTC","OBJECT_NAME":"STARLINK-2441","EPOCH":"2021-11-28T20:33:48.876480","DECAY_DATE":null,"TLE_LINE1":"1 48335U 21036BM  21332.85681570  .00000156  00000-0  29416-4 0  9994","FILE":"3226360","RA_OF_ASC_NODE":"272.9656","MEAN_ANOMALY":"292.9983","MEAN_MOTION_DOT":"0.00000156","LAUNCH_DATE":"2021-04-29","COUNTRY_CODE":"US","ECCENTRICITY":"0.00022270"},{"CLASSIFICATION_TYPE":"U","MEAN_MOTION":"15.06395557","OBJECT_ID":"2021-038A","APOAPSIS":"548.623","MEAN_ELEMENT_THEORY":"SGP4","PERIOD":"95.592","NORAD_CAT_ID":"48353","OBJECT_TYPE":"PAYLOAD","RCS_SIZE":"LARGE","BSTAR":"0.00007935700000","SITE":"AFETR","ARG_OF_PERICENTER":"86.7592","MEAN_MOTION_DDOT":"0.0000000000000","REF_FRAME":"TEME","PERIAPSIS":"545.832","ELEMENT_SET_NO":"999","GP_ID":"190686317","REV_AT_EPOCH":"3162","TLE_LINE1":"1 48353U 21038A   21332.86235376  .00000900  00000-0  79357-4 0  9992","DECAY_DATE":null,"FILE":"3226391","MEAN_ANOMALY":"273.3627","RA_OF_ASC_NODE":"172.9407","COUNTRY_CODE":"US","ECCENTRICITY":"0.00020150","MEAN_MOTION_DOT":"0.00000900","LAUNCH_DATE":"2021-05-04","TLE_LINE2":"2 48353  53.0538 172.9407 0002015  86.7592 273.3627 15.06395557 31622","SEMIMAJOR_AXIS":"6925.362","CENTER_NAME":"EARTH","EPHEMERIS_TYPE":"0","EPOCH":"2021-11-28T20:41:47.364864","OBJECT_NAME":"STARLINK-2613","TIME_SYSTEM":"UTC","INCLINATION":"53.0538"},{"COUNTRY_CODE":"US","ECCENTRICITY":"0.00019960","LAUNCH_DATE":"2021-05-04","MEAN_MOTION_DOT":"-0.00000937","RA_OF_ASC_NODE":"172.9465","MEAN_ANOMALY":"283.1477","FILE":"3226391","TLE_LINE1":"1 48354U 21038B   21332.85867356 -.00000937  00000-0 -43982-4 0  9998","DECAY_DATE":null,"EPOCH":"2021-11-28T20:36:29.395584","OBJECT_NAME":"STARLINK-2674","INCLINATION":"53.0550","TIME_SYSTEM":"UTC","CENTER_NAME":"EARTH","EPHEMERIS_TYPE":"0","TLE_LINE2":"2 48354  53.0550 172.9465 0001996  76.9735 283.1477 15.06391328 31622","SEMIMAJOR_AXIS":"6925.375","OBJECT_TYPE":"PAYLOAD","NORAD_CAT_ID":"48354","APOAPSIS":"548.622","MEAN_ELEMENT_THEORY":"SGP4","PERIOD":"95.593","CLASSIFICATION_TYPE":"U","OBJECT_ID":"2021-038B","MEAN_MOTION":"15.06391328","GP_ID":"190686566","ELEMENT_SET_NO":"999","REV_AT_EPOCH":"3162","REF_FRAME":"TEME","ARG_OF_PERICENTER":"76.9735","SITE":"AFETR","MEAN_MOTION_DDOT":"0.0000000000000","PERIAPSIS":"545.858","RCS_SIZE":"LARGE","BSTAR":"-0.00004398200000"},{"NORAD_CAT_ID":"48355","OBJECT_TYPE":"PAYLOAD","OBJECT_ID":"2021-038C","MEAN_MOTION":"15.06391915","CLASSIFICATION_TYPE":"U","PERIOD":"95.593","MEAN_ELEMENT_THEORY":"SGP4","APOAPSIS":"548.794","REV_AT_EPOCH":"3162","GP_ID":"190685316","ELEMENT_SET_NO":"999","BSTAR":"-0.00003286200000","RCS_SIZE":"LARGE","PERIAPSIS":"545.683","REF_FRAME":"TEME","SITE":"AFETR","MEAN_MOTION_DDOT":"0.0000000000000","ARG_OF_PERICENTER":"80.5648","RA_OF_ASC_NODE":"172.9722","MEAN_ANOMALY":"279.5594","LAUNCH_DATE":"2021-05-04","MEAN_MOTION_DOT":"-0.00000771","COUNTRY_CODE":"US","ECCENTRICITY":"0.00022460","DECAY_DATE":null,"TLE_LINE1":"1 48355U 21038C   21332.85498800 -.00000771  00000-0 -32862-4 0  9994","FILE":"3226391","EPHEMERIS_TYPE":"0","CENTER_NAME":"EARTH","INCLINATION":"53.0548","TIME_SYSTEM":"UTC","OBJECT_NAME":"STARLINK-2635","EPOCH":"2021-11-28T20:31:10.963200","SEMIMAJOR_AXIS":"6925.373","TLE_LINE2":"2 48355  53.0548 172.9722 0002246  80.5648 279.5594 15.06391915 31620"},{"FILE":"3226391","TLE_LINE1":"1 48356U 21038D   21332.85130332 -.00001143  00000-0 -57832-4 0  9996","DECAY_DATE":null,"ECCENTRICITY":"0.00027140","COUNTRY_CODE":"US","LAUNCH_DATE":"2021-05-04","MEAN_MOTION_DOT":"-0.00001143","RA_OF_ASC_NODE":"172.9671","MEAN_ANOMALY":"281.8386","TLE_LINE2":"2 48356  53.0600 172.9671 0002714  78.2908 281.8386 15.06393292 31621","SEMIMAJOR_AXIS":"6925.369","EPOCH":"2021-11-28T20:25:52.606848","OBJECT_NAME":"STARLINK-2637","INCLINATION":"53.0600","TIME_SYSTEM":"UTC","CENTER_NAME":"EARTH","EPHEMERIS_TYPE":"0","APOAPSIS":"549.114","PERIOD":"95.593","MEAN_ELEMENT_THEORY":"SGP4","CLASSIFICATION_TYPE":"U","OBJECT_ID":"2021-038D","MEAN_MOTION":"15.06393292","OBJECT_TYPE":"PAYLOAD","NORAD_CAT_ID":"48356","REF_FRAME":"TEME","SITE":"AFETR","ARG_OF_PERICENTER":"78.2908","MEAN_MOTION_DDOT":"0.0000000000000","PERIAPSIS":"545.355","RCS_SIZE":"LARGE","BSTAR":"-0.00005783200000","GP_ID":"190685566","ELEMENT_SET_NO":"999","REV_AT_EPOCH":"3162"}];
